NORAD_CAT_ID,OBJECT_NAME,OBJECT_TYPE,EPOCH,MEAN_MOTION,ECCENTRICITY,INCLINATION,RA_OF_ASC_NODE,ARG_OF_PERICENTER,MEAN_ANOMALY,BSTAR,MEAN_MOTION_DOT,MEAN_MOTION_DDOT,TLE_LINE0,TLE_LINE1,TLE_LINE2,SEMIMAJOR_AXIS,PERIOD,APOGEE,PERIGEE,DECAYED
52345.0,STARLINK-3852,PAYLOAD,2022-08-07 13:31:12,15.088359699999998,0.0001339,53.2147,320.5044,64.4757,295.6373,2.4957e-06,-2.48e-06,0.0,0 STARLINK-3852,1 52345U 22045Q   22219.56333379 -.00000248  00000-0  24957-5 0  9994,2 52345  53.2147 320.5044 0001339  64.4757 295.6373 15.08835970 17986,6917.893,95.438,540.684,538.831,0.0
52345.0,STARLINK-3852,PAYLOAD,2022-08-07 22:00:00,15.08875252,0.0001406999999999,53.2139,318.9174,57.0674,63.3968,-0.0044082,-0.00069832,0.0,0 STARLINK-3852,1 52345U 22045Q   22219.91667824 -.00069832  00000-0 -44082-2 0  9991,2 52345  53.2139 318.9174 0001407  57.0674  63.3968 15.08875252  1300,6917.773,95.435,540.611,538.664,0.0
52345.0,STARLINK-3852,PAYLOAD,2022-08-08 14:00:01,15.08843862,0.0001518,53.2142,315.925,58.4411,85.2988,0.00029279,4.375e-05,0.0,0 STARLINK-3852,1 52345U 22045Q   22220.58335648  .00004375  00000-0  29279-3 0  9993,2 52345  53.2142 315.9250 0001518  58.4411  85.2988 15.08843862 18139,6917.869000000002,95.437,540.784,538.683,0.0
52345.0,STARLINK-3852,PAYLOAD,2022-08-08 22:00:00,15.0888195,0.0001501999999999,53.214,314.4277,60.0246,95.262,-0.003882,-0.00061612,0.0,0 STARLINK-3852,1 52345U 22045Q   22220.91667824 -.00061612  00000-0 -38820-2 0  9994,2 52345  53.2140 314.4277 0001502  60.0246  95.2620 15.08881950  1303,6917.752,95.435,540.656,538.578,0.0
52345.0,STARLINK-3852,PAYLOAD,2022-08-09 14:00:01,15.08825728,0.0001628,53.2141,311.4358,61.6781,116.8064,-0.0014817,-0.00023783,0.0,0 STARLINK-3852,1 52345U 22045Q   22221.58334491 -.00023783  00000-0 -14817-2 0  9996,2 52345  53.2141 311.4358 0001628  61.6781 116.8064 15.08825728  1304,6917.924,95.438,540.915,538.663,0.0
52345.0,STARLINK-3852,PAYLOAD,2022-08-09 22:00:00,15.08822393,0.0001460999999999,53.2138,309.9385,62.0924,127.9625,-0.0021774,-0.00034758,0.0,0 STARLINK-3852,1 52345U 22045Q   22221.91667824 -.00034758  00000-0 -21774-2 0  9996,2 52345  53.2138 309.9385 0001461  62.0924 127.9625 15.08822393  1302,6917.934,95.439,540.81,538.788,0.0
52345.0,STARLINK-3852,PAYLOAD,2022-08-10 06:00:00,15.08811651,0.0001424,53.214,308.4416,69.6858,131.9289,0.0012754,0.00020053,0.0,0 STARLINK-3852,1 52345U 22045Q   22222.25001157  .00020053  00000-0  12754-2 0  9994,2 52345  53.2140 308.4416 0001424  69.6858 131.9289 15.08811651 18384,6917.967,95.439,540.817,538.847,0.0
52345.0,STARLINK-3852,PAYLOAD,2022-08-10 14:00:01,15.08807149,0.0001536,53.2136,306.947,60.2074,152.9772,0.0011762,0.00018464,0.0,0 STARLINK-3852,1 52345U 22045Q   22222.58334491  .00018464  00000-0  11762-2 0  9991,2 52345  53.2136 306.9470 0001536  60.2074 152.9772 15.08807149  1304,6917.981,95.44,540.908,538.783,0.0
52345.0,STARLINK-3852,PAYLOAD,2022-08-10 22:00:00,15.08836385,0.0001431999999999,53.2132,305.4495,62.7026,162.0431,-0.0017021,-0.00027272,0.0,0 STARLINK-3852,1 52345U 22045Q   22222.91667824 -.00027272  00000-0 -17021-2 0  9990,2 52345  53.2132 305.4495 0001432  62.7026 162.0431 15.08836385  1308,6917.891,95.438,540.747,538.766,0.0
52345.0,STARLINK-3852,PAYLOAD,2022-08-11 14:00:01,15.08820008,0.0001551,53.213,302.458,59.6234,188.2909,0.0015777,0.00024897,0.0,0 STARLINK-3852,1 52345U 22045Q   22223.58334491  .00024897  00000-0  15777-2 0  9999,2 52345  53.2130 302.4580 0001551  59.6234 188.2909 15.08820008  1301,6917.941,95.439,540.879,538.734,0.0
52345.0,STARLINK-3852,PAYLOAD,2022-08-11 22:00:00,15.0885068,0.0001443999999999,53.2127,300.9603,61.7787,197.7161,-0.0015763,-0.00025294,0.0,0 STARLINK-3852,1 52345U 22045Q   22223.91667824 -.00025294  00000-0 -15763-2 0  9994,2 52345  53.2127 300.9603 0001444  61.7787 197.7161 15.08850680 18632,6917.848000000001,95.437,540.712,538.714,0.0
52345.0,STARLINK-3852,PAYLOAD,2022-08-12 06:00:00,15.08854785,0.0001456,53.2126,299.4635,67.8288,203.268,0.00054423,8.388e-05,0.0,0 STARLINK-3852,1 52345U 22045Q   22224.25001157  .00008388  00000-0  54423-3 0  9993,2 52345  53.2126 299.4635 0001456  67.8288 203.2680 15.08854785 18688,6917.835,95.437,540.707,538.693,0.0
52345.0,STARLINK-3852,PAYLOAD,2022-08-12 14:00:01,15.08849069,0.0001563,53.2128,297.9687,57.8386,224.8778,0.00081044,0.00012637,0.0,0 STARLINK-3852,1 52345U 22045Q   22224.58334491  .00012637  00000-0  81044-3 0  9990,2 52345  53.2128 297.9687 0001563  57.8386 224.8778 15.08849069  1304,6917.853,95.437,540.799,538.636,0.0
52345.0,STARLINK-3852,PAYLOAD,2022-08-12 22:00:01,15.08853881,0.0001412,53.2132,296.4707,58.723,235.6723,-0.0017408,-0.00027896,0.0,0 STARLINK-3852,1 52345U 22045Q   22224.91668981 -.00027896  00000-0 -17408-2 0  9998,2 52345  53.2132 296.4707 0001412  58.7230 235.6723 15.08853881  1304,6917.8380000000025,95.437,540.68,538.726,0.0
52345.0,STARLINK-3852,PAYLOAD,2022-08-13 06:00:02,15.08834266,0.0001325,53.2148,294.9724,62.1005,243.8381,0.00032415,4.874e-05,0.0,0 STARLINK-3852,1 52345U 22045Q   22225.25002315  .00004874  00000-0  32415-3 0  9994,2 52345  53.2148 294.9724 0001325  62.1005 243.8381 15.08834266 18838,6917.898,95.438,540.68,538.846,0.0
52345.0,STARLINK-3852,PAYLOAD,2022-08-13 14:00:01,15.08810091,0.0001494,53.2141,293.4792,52.3715,265.0895,0.002341,0.00037135,0.0,0 STARLINK-3852,1 52345U 22045Q   22225.58334491  .00037135  00000-0  23410-2 0  9993,2 52345  53.2141 293.4792 0001494  52.3715 265.0895 15.08810091  1306,6917.972,95.439,540.87,538.803,0.0
52345.0,STARLINK-3852,PAYLOAD,2022-08-13 22:00:00,15.08839465,0.0001374,53.2141,291.9813,54.8451,274.1922,-0.00082467,-0.00013388,0.0,0 STARLINK-3852,1 52345U 22045Q   22225.91667824 -.00013388  00000-0 -82467-3 0  9993,2 52345  53.2141 291.9813 0001374  54.8451 274.1922 15.08839465  1302,6917.882,95.438,540.698,538.797,0.0
52345.0,STARLINK-3852,PAYLOAD,2022-08-14 14:00:01,15.08830227,0.0001558,53.2141,288.9897,51.3653,300.8811,0.0026704,0.00042456,0.0,0 STARLINK-3852,1 52345U 22045Q   22226.58334491  .00042456  00000-0  26704-2 0  9995,2 52345  53.2141 288.9897 0001558  51.3653 300.8811 15.08830227 19030,6917.91,95.438,540.8530000000002,538.697,0.0
52345.0,STARLINK-3852,PAYLOAD,2022-08-14 22:00:00,15.088632999999998,0.000147,53.2142,287.4915,56.0068,307.8442,-0.0029633,-0.0004717,0.0,0 STARLINK-3852,1 52345U 22045Q   22226.91667824 -.00047170  00000-0 -29633-2 0  9995,2 52345  53.2142 287.4915 0001470  56.0068 307.8442 15.08863300  1307,6917.809,95.436,540.691,538.6569999999998,0.0
52345.0,STARLINK-3852,PAYLOAD,2022-08-15 06:00:00,15.08847925,0.0001523,53.2144,285.995,60.1371,315.3101,-0.00077663,-0.00012629,0.0,0 STARLINK-3852,1 52345U 22045Q   22227.25001157 -.00012629  00000-0 -77663-3 0  9992,2 52345  53.2144 285.9950 0001523  60.1371 315.3101 15.08847925 19145,6917.856,95.437,540.775,538.668,0.0
52345.0,STARLINK-3852,PAYLOAD,2022-08-15 14:00:01,15.08817537,0.0001659,53.2142,284.4999,52.8131,334.2373,0.002741,0.00043578,0.0,0 STARLINK-3852,1 52345U 22045Q   22227.58334491  .00043578  00000-0  27410-2 0  9997,2 52345  53.2142 284.4999 0001659  52.8131 334.2373 15.08817537  1308,6917.949000000001,95.439,540.962,538.6659999999998,0.0
52345.0,STARLINK-3852,PAYLOAD,2022-08-15 22:00:00,15.08839697,0.0001506,53.2143,283.0017,57.8354,340.8072,0.00026826,3.984e-05,0.0,0 STARLINK-3852,1 52345U 22045Q   22227.91667824  .00003984  00000-0  26826-3 0  9991,2 52345  53.2143 283.0017 0001506  57.8354 340.8072 15.08839697  1308,6917.880999999999,95.438,540.788,538.7040000000002,0.0
52345.0,STARLINK-3852,PAYLOAD,2022-08-16 06:00:02,15.08870616,0.0001501,53.2144,281.5054,58.8862,351.4111,-0.0020231999999999,-0.0003237,0.0,0 STARLINK-3852,1 52345U 22045Q   22228.25002315 -.00032370  00000-0 -20232-2 0  9994,2 52345  53.2144 281.5054 0001501  58.8862 351.4111 15.08870616 19298,6917.7869999999975,95.436,540.69,538.613,0.0
52345.0,STARLINK-3852,PAYLOAD,2022-08-16 14:00:01,15.088184,0.0001564999999999,53.2142,280.0102,50.3744,11.4841,0.001351,0.00021266,0.0,0 STARLINK-3852,1 52345U 22045Q   22228.58334491  .00021266  00000-0  13510-2 0  9994,2 52345  53.2142 280.0102 0001565  50.3744  11.4841 15.08818400  1309,6917.946,95.439,540.894,538.729,0.0
52345.0,STARLINK-3852,PAYLOAD,2022-08-16 22:00:00,15.0882115,0.0001375,53.2142,278.512,55.7402,17.7039,0.00084185,0.00013129,0.0,0 STARLINK-3852,1 52345U 22045Q   22228.91667824  .00013129  00000-0  84185-3 0  9996,2 52345  53.2142 278.5120 0001375  55.7402  17.7039 15.08821150  1304,6917.938,95.439,540.754,538.852,0.0
52345.0,STARLINK-3852,PAYLOAD,2022-08-17 06:00:02,15.08851822,0.0001419,53.2142,277.0159,57.0956,27.9847,-0.0015436,-0.00024778,0.0,0 STARLINK-3852,1 52345U 22045Q   22229.25002315 -.00024778  00000-0 -15436-2 0  9998,2 52345  53.2142 277.0159 0001419  57.0956  27.9847 15.08851822 19441,6917.844,95.437,540.691,538.7280000000002,0.0
52345.0,STARLINK-3852,PAYLOAD,2022-08-17 16:00:00,15.08837098,0.0001529,53.2137,275.1461,49.8045,139.7053,0.00056317,8.686e-05,0.0,0 STARLINK-3852,1 52345U 22045Q   22229.66667824  .00008686  00000-0  56317-3 0  9997,2 52345  53.2137 275.1461 0001529  49.8045 139.7053 15.08837098  1306,6917.889,95.438,540.812,538.697,0.0
52345.0,STARLINK-3852,PAYLOAD,2022-08-18 14:00:01,15.08840687,0.0001592,53.2135,271.0312,50.5786,80.8398,0.001444,0.00022768,0.0,0 STARLINK-3852,1 52345U 22045Q   22230.58334491  .00022768  00000-0  14440-2 0  9998,2 52345  53.2135 271.0312 0001592  50.5786  80.8398 15.08840687  1301,6917.878000000002,95.438,540.845,538.6419999999998,0.0
52345.0,STARLINK-3852,PAYLOAD,2022-08-18 22:00:00,15.08822486,0.0001483,53.2135,269.533,58.6149,84.4212,0.0012563,0.00019753,0.0,0 STARLINK-3852,1 52345U 22045Q   22230.91667824  .00019753  00000-0  12563-2 0  9998,2 52345  53.2135 269.5330 0001483  58.6149  84.4212 15.08822486 19697,6917.934,95.439,540.825,538.773,0.0
